{
  "type": "FeatureCollection",
  "features": [
    {
      "type": "Feature",
      "properties": {
        "norad_id": 56564,
        "name": "BEIDOU-3 G4 (C62)",
        "group": "gnss",
        "lat": 0.8423661974345934,
        "lon": 20.416611999282974,
        "alt_km": 35798.98789068121,
        "timestamp": "2025-12-04T09:47:37.765576+00:00",
        "meta_object_name": "BEIDOU-3 G4 (C62)",
        "meta_object_id": "2023-066A",
        "meta_epoch": "2025-12-03T20:29:16.572192",
        "meta_mean_motion": 1.0027093,
        "meta_eccentricity": 0.00033147,
        "meta_inclination": 0.8357,
        "meta_ra_of_asc_node": 301.287,
        "meta_arg_of_pericenter": 235.5309,
        "meta_mean_anomaly": 3.5061,
        "meta_ephemeris_type": 0,
        "meta_classification_type": "U",
        "meta_norad_cat_id": 56564,
        "meta_element_set_no": 999,
        "meta_rev_at_epoch": 943,
        "meta_bstar": 0,
        "meta_mean_motion_dot": -9.3e-07,
        "meta_mean_motion_ddot": 0,
        "tle_line1": "1 56564U 23066A   25337.85366403 -.00000093  00000+0  00000+0 0  9999",
        "tle_line2": "2 56564   0.8357 301.2870 0003314 235.5309   3.5061  1.00270930  9433"
      },
      "geometry": {
        "type": "Point",
        "coordinates": [
          20.416611999282974,
          0.8423661974345934
        ]
      }
    },
    {
      "type": "Feature",
      "properties": {
        "norad_id": 56759,
        "name": "NVS-01 (IRNSS-1J)",
        "group": "gnss",
        "lat": 2.62934860647724,
        "lon": -10.00289879921041,
        "alt_km": 35788.3103097657,
        "timestamp": "2025-12-04T09:47:37.765588+00:00",
        "meta_object_name": "NVS-01 (IRNSS-1J)",
        "meta_object_id": "2023-076A",
        "meta_epoch": "2025-12-03T17:02:21.871104",
        "meta_mean_motion": 1.00267072,
        "meta_eccentricity": 0.00086444,
        "meta_inclination": 2.6421,
        "meta_ra_of_asc_node": 251.9302,
        "meta_arg_of_pericenter": 6.2821,
        "meta_mean_anomaly": 199.7131,
        "meta_ephemeris_type": 0,
        "meta_classification_type": "U",
        "meta_norad_cat_id": 56759,
        "meta_element_set_no": 999,
        "meta_rev_at_epoch": 915,
        "meta_bstar": 0,
        "meta_mean_motion_dot": -3.16e-06,
        "meta_mean_motion_ddot": 0,
        "tle_line1": "1 56759U 23076A   25337.70997536 -.00000316  00000+0  00000+0 0  9995",
        "tle_line2": "2 56759   2.6421 251.9302 0008644   6.2821 199.7131  1.00267072  9153"
      },
      "geometry": {
        "type": "Point",
        "coordinates": [
          -10.00289879921041,
          2.62934860647724
        ]
      }
    },
    {
      "type": "Feature",
      "properties": {
        "norad_id": 57517,
        "name": "COSMOS 2569 (703K)",
        "group": "gnss",
        "lat": -63.26528106910847,
        "lon": 12.72646358793235,
        "alt_km": 19110.719806926518,
        "timestamp": "2025-12-04T09:47:37.765599+00:00",
        "meta_object_name": "COSMOS 2569 (703K)",
        "meta_object_id": "2023-114A",
        "meta_epoch": "2025-12-01T16:42:34.469856",
        "meta_mean_motion": 2.13103822,
        "meta_eccentricity": 0.00101086,
        "meta_inclination": 65.1883,
        "meta_ra_of_asc_node": 79.2867,
        "meta_arg_of_pericenter": 287.0179,
        "meta_mean_anomaly": 72.8703,
        "meta_ephemeris_type": 0,
        "meta_classification_type": "U",
        "meta_norad_cat_id": 57517,
        "meta_element_set_no": 999,
        "meta_rev_at_epoch": 1805,
        "meta_bstar": 0,
        "meta_mean_motion_dot": -1.6e-07,
        "meta_mean_motion_ddot": 0,
        "tle_line1": "1 57517U 23114A   25335.69623229 -.00000016  00000+0  00000+0 0  9999",
        "tle_line2": "2 57517  65.1883  79.2867 0010108 287.0179  72.8703  2.13103822 18054"
      },
      "geometry": {
        "type": "Point",
        "coordinates": [
          12.72646358793235,
          -63.26528106910847
        ]
      }
    },
    {
      "type": "Feature",
      "properties": {
        "norad_id": 58654,
        "name": "BEIDOU-3 M28 (C50)",
        "group": "gnss",
        "lat": 13.441398560164219,
        "lon": 78.30484425022253,
        "alt_km": 21528.73374389375,
        "timestamp": "2025-12-04T09:47:37.765612+00:00",
        "meta_object_name": "BEIDOU-3 M28 (C50)",
        "meta_object_id": "2023-207A",
        "meta_epoch": "2025-12-02T18:32:49.254720",
        "meta_mean_motion": 1.86229565,
        "meta_eccentricity": 0.00020071,
        "meta_inclination": 55.5759,
        "meta_ra_of_asc_node": 68.9391,
        "meta_arg_of_pericenter": 265.1815,
        "meta_mean_anomaly": 94.7983,
        "meta_ephemeris_type": 0,
        "meta_classification_type": "U",
        "meta_norad_cat_id": 58654,
        "meta_element_set_no": 999,
        "meta_rev_at_epoch": 1318,
        "meta_bstar": 0,
        "meta_mean_motion_dot": -4.9e-07,
        "meta_mean_motion_ddot": 0,
        "tle_line1": "1 58654U 23207A   25336.77279230 -.00000049  00000+0  00000+0 0  9990",
        "tle_line2": "2 58654  55.5759  68.9391 0002007 265.1815  94.7983  1.86229565 13186"
      },
      "geometry": {
        "type": "Point",
        "coordinates": [
          78.30484425022253,
          13.441398560164219
        ]
      }
    },
    {
      "type": "Feature",
      "properties": {
        "norad_id": 58655,
        "name": "BEIDOU-3 M26 (C48)",
        "group": "gnss",
        "lat": 22.823352995320118,
        "lon": -127.8723815357499,
        "alt_km": 21526.739119456033,
        "timestamp": "2025-12-04T09:47:37.765624+00:00",
        "meta_object_name": "BEIDOU-3 M26 (C48)",
        "meta_object_id": "2023-207B",
        "meta_epoch": "2025-12-03T02:34:45.227424",
        "meta_mean_motion": 1.86231091,
        "meta_eccentricity": 0.00034591,
        "meta_inclination": 55.5782,
        "meta_ra_of_asc_node": 68.9139,
        "meta_arg_of_pericenter": 250.5367,
        "meta_mean_anomaly": 109.429,
        "meta_ephemeris_type": 0,
        "meta_classification_type": "U",
        "meta_norad_cat_id": 58655,
        "meta_element_set_no": 999,
        "meta_rev_at_epoch": 1317,
        "meta_bstar": 0,
        "meta_mean_motion_dot": -5e-07,
        "meta_mean_motion_ddot": 0,
        "tle_line1": "1 58655U 23207B   25337.10746791 -.00000050  00000+0  00000+0 0  9992",
        "tle_line2": "2 58655  55.5782  68.9139 0003459 250.5367 109.4290  1.86231091 13176"
      },
      "geometry": {
        "type": "Point",
        "coordinates": [
          -127.8723815357499,
          22.823352995320118
        ]
      }
    },
    {
      "type": "Feature",
      "properties": {
        "norad_id": 59598,
        "name": "GSAT0225 (GALILEO 29)",
        "group": "gnss",
        "lat": -20.13110869118721,
        "lon": -58.61678373360751,
        "alt_km": 23219.528619470537,
        "timestamp": "2025-12-04T09:47:37.765634+00:00",
        "meta_object_name": "GSAT0225 (GALILEO 29)",
        "meta_object_id": "2024-079A",
        "meta_epoch": "2025-12-01T03:29:20.871744",
        "meta_mean_motion": 1.70474544,
        "meta_eccentricity": 0.0002155,
        "meta_inclination": 54.9941,
        "meta_ra_of_asc_node": 106.6197,
        "meta_arg_of_pericenter": 171.5653,
        "meta_mean_anomaly": 190.7741,
        "meta_ephemeris_type": 0,
        "meta_classification_type": "U",
        "meta_norad_cat_id": 59598,
        "meta_element_set_no": 999,
        "meta_rev_at_epoch": 994,
        "meta_bstar": 0,
        "meta_mean_motion_dot": 4.1e-07,
        "meta_mean_motion_ddot": 0,
        "tle_line1": "1 59598U 24079A   25335.14538046  .00000041  00000+0  00000+0 0  9990",
        "tle_line2": "2 59598  54.9941 106.6197 0002155 171.5653 190.7741  1.70474544  9948"
      },
      "geometry": {
        "type": "Point",
        "coordinates": [
          -58.61678373360751,
          -20.13110869118721
        ]
      }
    },
    {
      "type": "Feature",
      "properties": {
        "norad_id": 59600,
        "name": "GSAT0227 (GALILEO 30)",
        "group": "gnss",
        "lat": 54.928005212363765,
        "lon": -159.55933069021197,
        "alt_km": 23206.354364912804,
        "timestamp": "2025-12-04T09:47:37.765646+00:00",
        "meta_object_name": "GSAT0227 (GALILEO 30)",
        "meta_object_id": "2024-079C",
        "meta_epoch": "2025-12-03T16:06:35.879040",
        "meta_mean_motion": 1.70474617,
        "meta_eccentricity": 0.00034037,
        "meta_inclination": 54.9912,
        "meta_ra_of_asc_node": 106.5479,
        "meta_arg_of_pericenter": 113.2328,
        "meta_mean_anomaly": 246.7577,
        "meta_ephemeris_type": 0,
        "meta_classification_type": "U",
        "meta_norad_cat_id": 59600,
        "meta_element_set_no": 999,
        "meta_rev_at_epoch": 1003,
        "meta_bstar": 0,
        "meta_mean_motion_dot": 1.8e-07,
        "meta_mean_motion_ddot": 0,
        "tle_line1": "1 59600U 24079C   25337.67124860  .00000018  00000+0  00000+0 0  9993",
        "tle_line2": "2 59600  54.9912 106.5479 0003403 113.2328 246.7577  1.70474617 10033"
      },
      "geometry": {
        "type": "Point",
        "coordinates": [
          -159.55933069021197,
          54.928005212363765
        ]
      }
    }
  ]
}